{"type": "FeatureCollection", "features": [ {"type": "Feature", "properties": {"norad_id": 42969, "name": "SENTINEL-5P", "group": "resource", "lat": 25.10248395977742, "lon": -89.20346833240636, "alt_km": 825.8355496665217, "timestamp": "2025-12-02T06:27:52.678629+00:00", "meta": {"OBJECT_NAME": "SENTINEL-5P", "OBJECT_ID": "2017-064A", "EPOCH": "2025-12-01T20:11:42.823104", "MEAN_MOTION": 14.19512886, "ECCENTRICITY": 9.44e-05, "INCLINATION": 98.7767, "RA_OF_ASC_NODE": 274.5231, "ARG_OF_PERICENTER": 85.4456, "MEAN_ANOMALY": 274.6828, "EPHEMERIS_TYPE": 0, "CLASSIFICATION_TYPE": "U", "NORAD_CAT_ID": 42969, "ELEMENT_SET_NO": 999, "REV_AT_EPOCH": 42156, "BSTAR": 6.371e-05, "MEAN_MOTION_DOT": 9e-07, "MEAN_MOTION_DDOT": 0}, "tle": {"line1": "1 42969U 17064A   25335.84146786  .00000090  00000+0  63710-4 0  9999", "line2": "2 42969  98.7767 274.5231 0000944  85.4456 274.6828 14.19512886421569"}}, "geometry": {"type": "Point", "coordinates": [-89.20346833240636, 25.10248395977742]}}, {"type": "Feature", "properties": {"norad_id": 42987, "name": "SKYSAT-C11", "group": "resource", "lat": 17.225547751993577, "lon": 111.1936800160591, "alt_km": 426.89670725021006, "timestamp": "2025-12-02T06:27:52.678640+00:00", "meta": {"OBJECT_NAME": "SKYSAT-C11", "OBJECT_ID": "2017-068A", "EPOCH": "2025-12-01T14:51:47.773152", "MEAN_MOTION": 15.46744844, "ECCENTRICITY": 8.852e-05, "INCLINATION": 97.4131, "RA_OF_ASC_NODE": 112.842, "ARG_OF_PERICENTER": 119.3633, "MEAN_ANOMALY": 240.7705, "EPHEMERIS_TYPE": 0, "CLASSIFICATION_TYPE": "U", "NORAD_CAT_ID": 42987, "ELEMENT_SET_NO": 999, "REV_AT_EPOCH": 45259, "BSTAR": 0.00045759313, "MEAN_MOTION_DOT": 0.00022842, "MEAN_MOTION_DDOT": 0}, "tle": {"line1": "1 42987U 17068A   25335.61930293  .00022842  00000+0  45759-3 0  9993", "line2": "2 42987  97.4131 112.8420 0000885 119.3633 240.7705 15.46744844452599"}}, "geometry": {"type": "Point", "coordinates": [111.1936800160591, 17.225547751993577]}}, {"type": "Feature", "properties": {"norad_id": 42988, "name": "SKYSAT-C10", "group": "resource", "lat": -49.937682047484884, "lon": 116.01479531779539, "alt_km": 480.66660506105836, "timestamp": "2025-12-02T06:27:52.678649+00:00", "meta": {"OBJECT_NAME": "SKYSAT-C10", "OBJECT_ID": "2017-068B", "EPOCH": "2025-12-01T19:42:41.164128", "MEAN_MOTION": 15.31937913, "ECCENTRICITY": 0.0005454, "INCLINATION": 97.4249, "RA_OF_ASC_NODE": 106.6446, "ARG_OF_PERICENTER": 124.8, "MEAN_ANOMALY": 235.3755, "EPHEMERIS_TYPE": 0, "CLASSIFICATION_TYPE": "U", "NORAD_CAT_ID": 42988, "ELEMENT_SET_NO": 999, "REV_AT_EPOCH": 45212, "BSTAR": 0.0003802, "MEAN_MOTION_DOT": 0.00011656, "MEAN_MOTION_DDOT": 0}, "tle": {"line1": "1 42988U 17068B   25335.82130977  .00011656  00000+0  38020-3 0  9992", "line2": "2 42988  97.4249 106.6446 0005454 124.8000 235.3755 15.31937913452124"}}, "geometry": {"type": "Point", "coordinates": [116.01479531779539, -49.937682047484884]}}, {"type": "Feature", "properties": {"norad_id": 42989, "name": "SKYSAT-C9", "group": "resource", "lat": 9.54907559911543, "lon": 105.18836676619189, "alt_km": 463.56377482338485, "timestamp": "2025-12-02T06:27:52.678660+00:00", "meta": {"OBJECT_NAME": "SKYSAT-C9", "OBJECT_ID": "2017-068C", "EPOCH": "2025-12-01T19:28:31.586016", "MEAN_MOTION": 15.3560928, "ECCENTRICITY": 0.001063, "INCLINATION": 97.4179, "RA_OF_ASC_NODE": 105.9832, "ARG_OF_PERICENTER": 123.3184, "MEAN_ANOMALY": 236.9079, "EPHEMERIS_TYPE": 0, "CLASSIFICATION_TYPE": "U", "NORAD_CAT_ID": 42989, "ELEMENT_SET_NO": 999, "REV_AT_EPOCH": 45240, "BSTAR": 0.00040968, "MEAN_MOTION_DOT": 0.00014136, "MEAN_MOTION_DDOT": 0}, "tle": {"line1": "1 42989U 17068C   25335.81147669  .00014136  00000+0  40968-3 0  9998", "line2": "2 42989  97.4179 105.9832 0010630 123.3184 236.9079 15.35609280452401"}}, "geometry": {"type": "Point", "coordinates": [105.18836676619189, 9.54907559911543]}}, {"type": "Feature", "properties": {"norad_id": 42990, "name": "SKYSAT-C8", "group": "resource", "lat": 79.50933792739173, "lon": -28.98639474690869, "alt_km": 460.4345346901018, "timestamp": "2025-12-02T06:27:52.678670+00:00", "meta": {"OBJECT_NAME": "SKYSAT-C8", "OBJECT_ID": "2017-068D", "EPOCH": "2025-12-01T19:04:19.524288", "MEAN_MOTION": 15.3254173, "ECCENTRICITY": 0.0002221, "INCLINATION": 97.4269, "RA_OF_ASC_NODE": 105.7507, "ARG_OF_PERICENTER": 24.7042, "MEAN_ANOMALY": 335.4306, "EPHEMERIS_TYPE": 0, "CLASSIFICATION_TYPE": "U", "NORAD_CAT_ID": 42990, "ELEMENT_SET_NO": 999, "REV_AT_EPOCH": 45203, "BSTAR": 0.00038803, "MEAN_MOTION_DOT": 0.00012121, "MEAN_MOTION_DDOT": 0}, "tle": {"line1": "1 42990U 17068D   25335.79467042  .00012121  00000+0  38803-3 0  9994", "line2": "2 42990  97.4269 105.7507 0002221  24.7042 335.4306 15.32541730452033"}}, "geometry": {"type": "Point", "coordinates": [-28.98639474690869, 79.50933792739173]}}, {"type": "Feature", "properties": {"norad_id": 42991, "name": "SKYSAT-C7", "group": "resource", "lat": -24.86014285326807, "lon": 110.74211225785281, "alt_km": 477.8847691912151, "timestamp": "2025-12-02T06:27:52.678679+00:00", "meta": {"OBJECT_NAME": "SKYSAT-C7", "OBJECT_ID": "2017-068E", "EPOCH": "2025-12-01T19:36:01.768032", "MEAN_MOTION": 15.31952389, "ECCENTRICITY": 0.0007907, "INCLINATION": 97.4276, "RA_OF_ASC_NODE": 106.8228, "ARG_OF_PERICENTER": 91.1597, "MEAN_ANOMALY": 269.0551, "EPHEMERIS_TYPE": 0, "CLASSIFICATION_TYPE": "U", "NORAD_CAT_ID": 42991, "ELEMENT_SET_NO": 999, "REV_AT_EPOCH": 45210, "BSTAR": 0.00037908, "MEAN_MOTION_DOT": 0.00011632, "MEAN_MOTION_DDOT": 0}, "tle": {"line1": "1 42991U 17068E   25335.81668713  .00011632  00000+0  37908-3 0  9997", "line2": "2 42991  97.4276 106.8228 0007907  91.1597 269.0551 15.31952389452100"}}, "geometry": {"type": "Point", "coordinates": [110.74211225785281, -24.86014285326807]}}, {"type": "Feature", "properties": {"norad_id": 42992, "name": "SKYSAT-C6", "group": "resource", "lat": 55.96080468983866, "lon": -61.13599361958392, "alt_km": 463.65568807922773, "timestamp": "2025-12-02T06:27:52.678690+00:00", "meta": {"OBJECT_NAME": "SKYSAT-C6", "OBJECT_ID": "2017-068F", "EPOCH": "2025-12-01T07:58:11.317152", "MEAN_MOTION": 15.31122388, "ECCENTRICITY": 0.00051092, "INCLINATION": 97.431, "RA_OF_ASC_NODE": 106.7844, "ARG_OF_PERICENTER": 114.9451, "MEAN_ANOMALY": 245.2322, "EPHEMERIS_TYPE": 0, "CLASSIFICATION_TYPE": "U", "NORAD_CAT_ID": 42992, "ELEMENT_SET_NO": 999, "REV_AT_EPOCH": 45201, "BSTAR": 0.00046159944, "MEAN_MOTION_DOT": 0.00013815, "MEAN_MOTION_DDOT": 0}, "tle": {"line1": "1 42992U 17068F   25335.33207543  .00013815  00000+0  46160-3 0  9990", "line2": "2 42992  97.4310 106.7844 0005109 114.9451 245.2322 15.31122388452018"}}, "geometry": {"type": "Point", "coordinates": [-61.13599361958392, 55.96080468983866]}}, {"type": "Feature", "properties": {"norad_id": 43111, "name": "CARTOSAT-2F", "group": "resource", "lat": -35.42151881913989, "lon": 39.40323451151122, "alt_km": 514.6535525833524, "timestamp": "2025-12-02T06:27:52.678699+00:00", "meta": {"OBJECT_NAME": "CARTOSAT-2F", "OBJECT_ID": "2018-004A", "EPOCH": "2025-12-01T21:08:16.196064", "MEAN_MOTION": 15.19324266, "ECCENTRICITY": 9.07e-05, "INCLINATION": 97.4331, "RA_OF_ASC_NODE": 33.6929, "ARG_OF_PERICENTER": 193.2914, "MEAN_ANOMALY": 166.8297, "EPHEMERIS_TYPE": 0, "CLASSIFICATION_TYPE": "U", "NORAD_CAT_ID": 43111, "ELEMENT_SET_NO": 999, "REV_AT_EPOCH": 43737, "BSTAR": 6.1441e-05, "MEAN_MOTION_DOT": 1.23e-05, "MEAN_MOTION_DDOT": 0}, "tle": {"line1": "1 43111U 18004A   25335.88074301  .00001230  00000+0  61441-4 0  9997", "line2": "2 43111  97.4331  33.6929 0000907 193.2914 166.8297 15.19324266437378"}}, "geometry": {"type": "Point", "coordinates": [39.40323451151122, -35.42151881913989]}}, {"type": "Feature", "properties": {"norad_id": 43259, "name": "GAOFEN-1 02", "group": "resource", "lat": -77.48181011549714, "lon": 174.2614821602803, "alt_km": 647.0153322024562, "timestamp": "2025-12-02T06:27:52.678710+00:00", "meta": {"OBJECT_NAME": "GAOFEN-1 02", "OBJECT_ID": "2018-031A", "EPOCH": "2025-12-01T21:09:21.892896", "MEAN_MOTION": 14.76442173, "ECCENTRICITY": 0.0001277, "INCLINATION": 98.0822, "RA_OF_ASC_NODE": 33.6658, "ARG_OF_PERICENTER": 267.5836, "MEAN_ANOMALY": 92.5228, "EPHEMERIS_TYPE": 0, "CLASSIFICATION_TYPE": "U", "NORAD_CAT_ID": 43259, "ELEMENT_SET_NO": 999, "REV_AT_EPOCH": 41358, "BSTAR": 0.00015942, "MEAN_MOTION_DOT": 1.057e-05, "MEAN_MOTION_DDOT": 0}, "tle": {"line1": "1 43259U 18031A   25335.88150339  .00001057  00000+0  15942-3 0  9997", "line2": "2 43259  98.0822  33.6658 0001277 267.5836  92.5228 14.76442173413587"}}, "geometry": {"type": "Point", "coordinates": [174.2614821602803, -77.48181011549714]}}, {"type": "Feature", "properties": {"norad_id": 43260, "name": "GAOFEN-1 03", "group": "resource", "lat": 16.753818449843685, "lon": 31.480701702197113, "alt_km": 639.4504405182779, "timestamp": "2025-12-02T06:27:52.678720+00:00", "meta": {"OBJECT_NAME": "GAOFEN-1 03", "OBJECT_ID": "2018-031B", "EPOCH": "2025-12-01T20:37:43.970016", "MEAN_MOTION": 14.76398583, "ECCENTRICITY": 0.0002733, "INCLINATION": 98.0814, "RA_OF_ASC_NODE": 33.5222, "ARG_OF_PERICENTER": 3.6821, "MEAN_ANOMALY": 356.4408, "EPHEMERIS_TYPE": 0, "CLASSIFICATION_TYPE": "U", "NORAD_CAT_ID": 43260, "ELEMENT_SET_NO": 999, "REV_AT_EPOCH": 41357, "BSTAR": 0.00015998, "MEAN_MOTION_DOT": 1.06e-05, "MEAN_MOTION_DDOT": 0}, "tle": {"line1": "1 43260U 18031B   25335.85953669  .00001060  00000+0  15998-3 0  9998", "line2": "2 43260  98.0814  33.5222 0002733   3.6821 356.4408 14.76398583413573"}}, "geometry": {"type": "Point", "coordinates": [31.480701702197113, 16.753818449843685]}}]}